{
  "type": "FeatureCollection",
  "features": [
    {
      "type": "Feature",
      "properties": {
        "norad_id": 66611,
        "name": "STARLINK-35583",
        "group": "last-30-days",
        "lat": -42.47813095518487,
        "lon": 33.214084546261645,
        "alt_km": 446.6764847553068,
        "timestamp": "2025-12-26T12:57:37.974064+00:00",
        "meta_object_name": "STARLINK-35583",
        "meta_object_id": "2025-270Z",
        "meta_epoch": "2025-12-25T17:05:26.222784",
        "meta_mean_motion": 15.40757863,
        "meta_eccentricity": 6.595e-05,
        "meta_inclination": 43.0004,
        "meta_ra_of_asc_node": 117.2753,
        "meta_arg_of_pericenter": 326.6033,
        "meta_mean_anomaly": 33.4782,
        "meta_ephemeris_type": 0,
        "meta_classification_type": "U",
        "meta_norad_cat_id": 66611,
        "meta_element_set_no": 999,
        "meta_rev_at_epoch": 646,
        "meta_bstar": 0.001409315,
        "meta_mean_motion_dot": 0.00059138,
        "meta_mean_motion_ddot": 0,
        "tle_line1": "1 66611U 25270Z   25359.71210906  .00059138  00000+0  14093-2 0  9990",
        "tle_line2": "2 66611  43.0004 117.2753 0000659 326.6033  33.4782 15.40757863  6461"
      },
      "geometry": {
        "type": "Point",
        "coordinates": [
          33.214084546261645,
          -42.47813095518487
        ]
      }
    },
    {
      "type": "Feature",
      "properties": {
        "norad_id": 66612,
        "name": "STARLINK-36039",
        "group": "last-30-days",
        "lat": 19.36852869257385,
        "lon": 135.2714905109892,
        "alt_km": 440.82497976288687,
        "timestamp": "2025-12-26T12:57:37.974076+00:00",
        "meta_object_name": "STARLINK-36039",
        "meta_object_id": "2025-270AA",
        "meta_epoch": "2025-12-25T01:03:04.009824",
        "meta_mean_motion": 15.40706418,
        "meta_eccentricity": 0.00011468,
        "meta_inclination": 42.9994,
        "meta_ra_of_asc_node": 121.733,
        "meta_arg_of_pericenter": 270.7369,
        "meta_mean_anomaly": 89.3356,
        "meta_ephemeris_type": 0,
        "meta_classification_type": "U",
        "meta_norad_cat_id": 66612,
        "meta_element_set_no": 999,
        "meta_rev_at_epoch": 624,
        "meta_bstar": 0.0010340794,
        "meta_mean_motion_dot": 0.00043146,
        "meta_mean_motion_ddot": 0,
        "tle_line1": "1 66612U 25270AA  25359.04379641  .00043146  00000+0  10341-2 0  9993",
        "tle_line2": "2 66612  42.9994 121.7330 0001146 270.7369  89.3356 15.40706418  6245"
      },
      "geometry": {
        "type": "Point",
        "coordinates": [
          135.2714905109892,
          19.36852869257385
        ]
      }
    },
    {
      "type": "Feature",
      "properties": {
        "norad_id": 66613,
        "name": "STARLINK-36037",
        "group": "last-30-days",
        "lat": 33.50112095294653,
        "lon": 158.31407490679518,
        "alt_km": 438.24323691712925,
        "timestamp": "2025-12-26T12:57:37.974086+00:00",
        "meta_object_name": "STARLINK-36037",
        "meta_object_id": "2025-270AB",
        "meta_epoch": "2025-12-25T08:43:22.456704",
        "meta_mean_motion": 15.40747703,
        "meta_eccentricity": 3.47e-05,
        "meta_inclination": 42.9973,
        "meta_ra_of_asc_node": 119.8307,
        "meta_arg_of_pericenter": 326.0918,
        "meta_mean_anomaly": 33.9916,
        "meta_ephemeris_type": 0,
        "meta_classification_type": "U",
        "meta_norad_cat_id": 66613,
        "meta_element_set_no": 999,
        "meta_rev_at_epoch": 629,
        "meta_bstar": 0.00097518,
        "meta_mean_motion_dot": 0.00040714,
        "meta_mean_motion_ddot": 0,
        "tle_line1": "1 66613U 25270AB  25359.36345436  .00040714  00000+0  97518-3 0  9994",
        "tle_line2": "2 66613  42.9973 119.8307 0000347 326.0918  33.9916 15.40747703  6296"
      },
      "geometry": {
        "type": "Point",
        "coordinates": [
          158.31407490679518,
          33.50112095294653
        ]
      }
    },
    {
      "type": "Feature",
      "properties": {
        "norad_id": 66614,
        "name": "STARLINK-36040",
        "group": "last-30-days",
        "lat": 9.368074851951421,
        "lon": -77.42590573722481,
        "alt_km": 442.6445204616866,
        "timestamp": "2025-12-26T12:57:37.974096+00:00",
        "meta_object_name": "STARLINK-36040",
        "meta_object_id": "2025-270AC",
        "meta_epoch": "2025-12-25T08:14:20.544576",
        "meta_mean_motion": 15.40744083,
        "meta_eccentricity": 0.0001175,
        "meta_inclination": 42.9964,
        "meta_ra_of_asc_node": 119.6723,
        "meta_arg_of_pericenter": 302.2675,
        "meta_mean_anomaly": 57.8067,
        "meta_ephemeris_type": 0,
        "meta_classification_type": "U",
        "meta_norad_cat_id": 66614,
        "meta_element_set_no": 999,
        "meta_rev_at_epoch": 613,
        "meta_bstar": 0.0012628,
        "meta_mean_motion_dot": 0.00052891,
        "meta_mean_motion_ddot": 0,
        "tle_line1": "1 66614U 25270AC  25359.34329334  .00052891  00000+0  12628-2 0  9999",
        "tle_line2": "2 66614  42.9964 119.6723 0001175 302.2675  57.8067 15.40744083  6136"
      },
      "geometry": {
        "type": "Point",
        "coordinates": [
          -77.42590573722481,
          9.368074851951421
        ]
      }
    },
    {
      "type": "Feature",
      "properties": {
        "norad_id": 66615,
        "name": "STARLINK-35988",
        "group": "last-30-days",
        "lat": 42.971016122818,
        "lon": -155.5268650869133,
        "alt_km": 438.1420405234894,
        "timestamp": "2025-12-26T12:57:37.974106+00:00",
        "meta_object_name": "STARLINK-35988",
        "meta_object_id": "2025-270AD",
        "meta_epoch": "2025-12-25T16:20:27.897216",
        "meta_mean_motion": 15.40700329,
        "meta_eccentricity": 0.00016951,
        "meta_inclination": 43.0013,
        "meta_ra_of_asc_node": 117.9088,
        "meta_arg_of_pericenter": 260.634,
        "meta_mean_anomaly": 99.4325,
        "meta_ephemeris_type": 0,
        "meta_classification_type": "U",
        "meta_norad_cat_id": 66615,
        "meta_element_set_no": 999,
        "meta_rev_at_epoch": 618,
        "meta_bstar": 0.0010609961,
        "meta_mean_motion_dot": 0.00044275,
        "meta_mean_motion_ddot": 0,
        "tle_line1": "1 66615U 25270AD  25359.68087844  .00044275  00000+0  10610-2 0  9990",
        "tle_line2": "2 66615  43.0013 117.9088 0001695 260.6340  99.4325 15.40700329  6181"
      },
      "geometry": {
        "type": "Point",
        "coordinates": [
          -155.5268650869133,
          42.971016122818
        ]
      }
    },
    {
      "type": "Feature",
      "properties": {
        "norad_id": 66616,
        "name": "STARLINK-35391",
        "group": "last-30-days",
        "lat": -7.2352173362030685,
        "lon": -59.45259386579639,
        "alt_km": 445.32912446752835,
        "timestamp": "2025-12-26T12:57:37.974116+00:00",
        "meta_object_name": "STARLINK-35391",
        "meta_object_id": "2025-270AE",
        "meta_epoch": "2025-12-26T05:54:50.729472",
        "meta_mean_motion": 15.40801366,
        "meta_eccentricity": 0.00029043,
        "meta_inclination": 43.0008,
        "meta_ra_of_asc_node": 114.41,
        "meta_arg_of_pericenter": 309.2776,
        "meta_mean_anomaly": 50.7823,
        "meta_ephemeris_type": 0,
        "meta_classification_type": "U",
        "meta_norad_cat_id": 66616,
        "meta_element_set_no": 999,
        "meta_rev_at_epoch": 654,
        "meta_bstar": 0.0011636643,
        "meta_mean_motion_dot": 0.00048785,
        "meta_mean_motion_ddot": 0,
        "tle_line1": "1 66616U 25270AE  25360.24642048  .00048785  00000+0  11637-2 0  9998",
        "tle_line2": "2 66616  43.0008 114.4100 0002904 309.2776  50.7823 15.40801366  6546"
      },
      "geometry": {
        "type": "Point",
        "coordinates": [
          -59.45259386579639,
          -7.2352173362030685
        ]
      }
    },
    {
      "type": "Feature",
      "properties": {
        "norad_id": 66617,
        "name": "STARLINK-35940",
        "group": "last-30-days",
        "lat": 13.765888309133274,
        "lon": 132.64068790664442,
        "alt_km": 445.9048466443319,
        "timestamp": "2025-12-26T12:57:37.974126+00:00",
        "meta_object_name": "STARLINK-35940",
        "meta_object_id": "2025-271A",
        "meta_epoch": "2025-12-25T15:04:28.881120",
        "meta_mean_motion": 15.39600088,
        "meta_eccentricity": 0.0001206,
        "meta_inclination": 53.1613,
        "meta_ra_of_asc_node": 126.3554,
        "meta_arg_of_pericenter": 97.0516,
        "meta_mean_anomaly": 263.0626,
        "meta_ephemeris_type": 0,
        "meta_classification_type": "U",
        "meta_norad_cat_id": 66617,
        "meta_element_set_no": 999,
        "meta_rev_at_epoch": 619,
        "meta_bstar": 0.0010268,
        "meta_mean_motion_dot": 0.00040863,
        "meta_mean_motion_ddot": 0,
        "tle_line1": "1 66617U 25271A   25359.62811205  .00040863  00000+0  10268-2 0  9991",
        "tle_line2": "2 66617  53.1613 126.3554 0001206  97.0516 263.0626 15.39600088  6191"
      },
      "geometry": {
        "type": "Point",
        "coordinates": [
          132.64068790664442,
          13.765888309133274
        ]
      }
    }
  ]
}